{
  "type": "FeatureCollection",
  "features": [
    {
      "type": "Feature",
      "properties": {
        "norad_id": 66509,
        "name": "STARLINK-35598",
        "group": "last-30-days",
        "lat": 42.88925167425007,
        "lon": -99.80490825512764,
        "alt_km": 378.2975176046384,
        "timestamp": "2025-12-05T19:30:24.350470+00:00",
        "meta_object_name": "STARLINK-35598",
        "meta_object_id": "2025-263AA",
        "meta_epoch": "2025-12-05T06:00:02.000160",
        "meta_mean_motion": 15.63877562,
        "meta_eccentricity": 0.0001385,
        "meta_inclination": 42.9994,
        "meta_ra_of_asc_node": 169.0144,
        "meta_arg_of_pericenter": 264.3477,
        "meta_mean_anomaly": 259.4065,
        "meta_ephemeris_type": 0,
        "meta_classification_type": "U",
        "meta_norad_cat_id": 66509,
        "meta_element_set_no": 999,
        "meta_rev_at_epoch": 443,
        "meta_bstar": -0.0242368,
        "meta_mean_motion_dot": -0.0205123,
        "meta_mean_motion_ddot": 0,
        "tle_line1": "1 66509U 25263AA  25339.25002315 -.02051230  00000+0 -24237-1 0  9997",
        "tle_line2": "2 66509  42.9994 169.0144 0001385 264.3477 259.4065 15.63877562  4432"
      },
      "geometry": {
        "type": "Point",
        "coordinates": [
          -99.80490825512764,
          42.88925167425007
        ]
      }
    },
    {
      "type": "Feature",
      "properties": {
        "norad_id": 66510,
        "name": "STARLINK-35600",
        "group": "last-30-days",
        "lat": 42.93037256833297,
        "lon": -107.64987104373179,
        "alt_km": 378.2963812757016,
        "timestamp": "2025-12-05T19:30:24.350480+00:00",
        "meta_object_name": "STARLINK-35600",
        "meta_object_id": "2025-263AB",
        "meta_epoch": "2025-12-05T06:00:02.000160",
        "meta_mean_motion": 15.63872823,
        "meta_eccentricity": 0.00013931,
        "meta_inclination": 42.9992,
        "meta_ra_of_asc_node": 169.0291,
        "meta_arg_of_pericenter": 268.7567,
        "meta_mean_anomaly": 249.2525,
        "meta_ephemeris_type": 0,
        "meta_classification_type": "U",
        "meta_norad_cat_id": 66510,
        "meta_element_set_no": 999,
        "meta_rev_at_epoch": 443,
        "meta_bstar": -0.024204916,
        "meta_mean_motion_dot": -0.0204854,
        "meta_mean_motion_ddot": 0,
        "tle_line1": "1 66510U 25263AB  25339.25002315 -.02048540  00000+0 -24205-1 0  9994",
        "tle_line2": "2 66510  42.9992 169.0291 0001393 268.7567 249.2525 15.63872823  4435"
      },
      "geometry": {
        "type": "Point",
        "coordinates": [
          -107.64987104373179,
          42.93037256833297
        ]
      }
    },
    {
      "type": "Feature",
      "properties": {
        "norad_id": 66511,
        "name": "STARLINK-35444",
        "group": "last-30-days",
        "lat": 42.96283190241399,
        "lon": -102.41875703578248,
        "alt_km": 378.35628388545865,
        "timestamp": "2025-12-05T19:30:24.350492+00:00",
        "meta_object_name": "STARLINK-35444",
        "meta_object_id": "2025-263AC",
        "meta_epoch": "2025-12-05T06:00:02.000160",
        "meta_mean_motion": 15.63880221,
        "meta_eccentricity": 0.00014379,
        "meta_inclination": 42.9994,
        "meta_ra_of_asc_node": 169.0202,
        "meta_arg_of_pericenter": 269.2486,
        "meta_mean_anomaly": 252.5932,
        "meta_ephemeris_type": 0,
        "meta_classification_type": "U",
        "meta_norad_cat_id": 66511,
        "meta_element_set_no": 999,
        "meta_rev_at_epoch": 443,
        "meta_bstar": -0.024358971,
        "meta_mean_motion_dot": -0.0206049,
        "meta_mean_motion_ddot": 0,
        "tle_line1": "1 66511U 25263AC  25339.25002315 -.02060490  00000+0 -24359-1 0  9993",
        "tle_line2": "2 66511  42.9994 169.0202 0001437 269.2486 252.5932 15.63880221  4435"
      },
      "geometry": {
        "type": "Point",
        "coordinates": [
          -102.41875703578248,
          42.96283190241399
        ]
      }
    },
    {
      "type": "Feature",
      "properties": {
        "norad_id": 66512,
        "name": "STARLINK-35366",
        "group": "last-30-days",
        "lat": 42.75619736040848,
        "lon": -97.20090921722044,
        "alt_km": 378.3576754234846,
        "timestamp": "2025-12-05T19:30:24.350501+00:00",
        "meta_object_name": "STARLINK-35366",
        "meta_object_id": "2025-263AD",
        "meta_epoch": "2025-12-05T06:00:02.000160",
        "meta_mean_motion": 15.63885438,
        "meta_eccentricity": 0.00013864,
        "meta_inclination": 42.9993,
        "meta_ra_of_asc_node": 169.0102,
        "meta_arg_of_pericenter": 267.2099,
        "meta_mean_anomaly": 258.4625,
        "meta_ephemeris_type": 0,
        "meta_classification_type": "U",
        "meta_norad_cat_id": 66512,
        "meta_element_set_no": 999,
        "meta_rev_at_epoch": 443,
        "meta_bstar": -0.024422582,
        "meta_mean_motion_dot": -0.02065519,
        "meta_mean_motion_ddot": 0,
        "tle_line1": "1 66512U 25263AD  25339.25002315 -.02065519  00000+0 -24423-1 0  9993",
        "tle_line2": "2 66512  42.9993 169.0102 0001386 267.2099 258.4625 15.63885438  4434"
      },
      "geometry": {
        "type": "Point",
        "coordinates": [
          -97.20090921722044,
          42.75619736040848
        ]
      }
    },
    {
      "type": "Feature",
      "properties": {
        "norad_id": 66513,
        "name": "STARLINK-35692",
        "group": "last-30-days",
        "lat": 42.97648448081978,
        "lon": -105.0358826059416,
        "alt_km": 378.31007160889567,
        "timestamp": "2025-12-05T19:30:24.350511+00:00",
        "meta_object_name": "STARLINK-35692",
        "meta_object_id": "2025-263AE",
        "meta_epoch": "2025-12-05T06:00:02.000160",
        "meta_mean_motion": 15.63874643,
        "meta_eccentricity": 0.00014046,
        "meta_inclination": 42.9993,
        "meta_ra_of_asc_node": 169.0244,
        "meta_arg_of_pericenter": 266.5254,
        "meta_mean_anomaly": 253.4001,
        "meta_ephemeris_type": 0,
        "meta_classification_type": "U",
        "meta_norad_cat_id": 66513,
        "meta_element_set_no": 999,
        "meta_rev_at_epoch": 443,
        "meta_bstar": -0.024240499,
        "meta_mean_motion_dot": -0.0205131,
        "meta_mean_motion_ddot": 0,
        "tle_line1": "1 66513U 25263AE  25339.25002315 -.02051310  00000+0 -24240-1 0  9995",
        "tle_line2": "2 66513  42.9993 169.0244 0001404 266.5254 253.4001 15.63874643  4437"
      },
      "geometry": {
        "type": "Point",
        "coordinates": [
          -105.0358826059416,
          42.97648448081978
        ]
      }
    },
    {
      "type": "Feature",
      "properties": {
        "norad_id": 66514,
        "name": "SENTINEL-6B",
        "group": "last-30-days",
        "lat": 26.13590659816763,
        "lon": -15.731433791297505,
        "alt_km": 1320.028788355392,
        "timestamp": "2025-12-05T19:30:24.350522+00:00",
        "meta_object_name": "SENTINEL-6B",
        "meta_object_id": "2025-264A",
        "meta_epoch": "2025-12-05T05:39:22.607712",
        "meta_mean_motion": 12.8587775,
        "meta_eccentricity": 0.0011549,
        "meta_inclination": 66.0392,
        "meta_ra_of_asc_node": 178.08,
        "meta_arg_of_pericenter": 268.4163,
        "meta_mean_anomaly": 91.5532,
        "meta_ephemeris_type": 0,
        "meta_classification_type": "U",
        "meta_norad_cat_id": 66514,
        "meta_element_set_no": 999,
        "meta_rev_at_epoch": 232,
        "meta_bstar": 0.00029277117,
        "meta_mean_motion_dot": 1e-07,
        "meta_mean_motion_ddot": 0,
        "tle_line1": "1 66514U 25264A   25339.23567833  .00000010  00000+0  29277-3 0  9990",
        "tle_line2": "2 66514  66.0392 178.0800 0011549 268.4163  91.5532 12.85877750  2326"
      },
      "geometry": {
        "type": "Point",
        "coordinates": [
          -15.731433791297505,
          26.13590659816763
        ]
      }
    },
    {
      "type": "Feature",
      "properties": {
        "norad_id": 66516,
        "name": "STARLINK-35924",
        "group": "last-30-days",
        "lat": 6.236734038896559,
        "lon": -91.88168868530363,
        "alt_km": 362.7445068789166,
        "timestamp": "2025-12-05T19:30:24.350534+00:00",
        "meta_object_name": "STARLINK-35924",
        "meta_object_id": "2025-265A",
        "meta_epoch": "2025-12-05T06:00:02.000160",
        "meta_mean_motion": 15.70704556,
        "meta_eccentricity": 0.00013582,
        "meta_inclination": 43,
        "meta_ra_of_asc_node": 98.2404,
        "meta_arg_of_pericenter": 269.0606,
        "meta_mean_anomaly": 318.042,
        "meta_ephemeris_type": 0,
        "meta_classification_type": "U",
        "meta_norad_cat_id": 66516,
        "meta_element_set_no": 999,
        "meta_rev_at_epoch": 377,
        "meta_bstar": -0.016688826,
        "meta_mean_motion_dot": -0.01891503,
        "meta_mean_motion_ddot": 0,
        "tle_line1": "1 66516U 25265A   25339.25002315 -.01891503  00000+0 -16689-1 0  9993",
        "tle_line2": "2 66516  43.0000  98.2404 0001358 269.0606 318.0420 15.70704556  3771"
      },
      "geometry": {
        "type": "Point",
        "coordinates": [
          -91.88168868530363,
          6.236734038896559
        ]
      }
    }
  ]
}